{"type": "FeatureCollection", "features": [ {"type": "Feature", "properties": {"norad_id": 38779, "name": "GSAT-10 (GAGAN/PRN 128)", "group": "gnss", "lat": -0.04070317687799841, "lon": -109.06446692656506, "alt_km": 35790.76532603173, "timestamp": "2025-12-13T05:42:57.799238+00:00", "meta": {"OBJECT_NAME": "GSAT-10 (GAGAN/PRN 128)", "OBJECT_ID": "2012-051B", "EPOCH": "2025-12-12T03:36:13.806720", "MEAN_MOTION": 1.00273129, "ECCENTRICITY": 0.00024849, "INCLINATION": 0.0908, "RA_OF_ASC_NODE": 266.2921, "ARG_OF_PERICENTER": 226.2243, "MEAN_ANOMALY": 85.6406, "EPHEMERIS_TYPE": 0, "CLASSIFICATION_TYPE": "U", "NORAD_CAT_ID": 38779, "ELEMENT_SET_NO": 999, "REV_AT_EPOCH": 4822, "BSTAR": 0, "MEAN_MOTION_DOT": -1.56e-06, "MEAN_MOTION_DDOT": 0}, "tle": {"line1": "1 38779U 12051B   25346.15015980 -.00000156  00000+0  00000+0 0  9993", "line2": "2 38779   0.0908 266.2921 0002484 226.2243  85.6406  1.00273129 48220"}}, "geometry": {"type": "Point", "coordinates": [-109.06446692656506, -0.04070317687799841]}}, {"type": "Feature", "properties": {"norad_id": 38833, "name": "GPS BIIF-3  (PRN 24)", "group": "gnss", "lat": -52.35838211900004, "lon": 77.82831164808724, "alt_km": 20562.583728925227, "timestamp": "2025-12-13T05:42:57.799250+00:00", "meta": {"OBJECT_NAME": "GPS BIIF-3  (PRN 24)", "OBJECT_ID": "2012-053A", "EPOCH": "2025-12-09T20:38:00.572640", "MEAN_MOTION": 2.00564945, "ECCENTRICITY": 0.0175755, "INCLINATION": 53.5569, "RA_OF_ASC_NODE": 151.3565, "ARG_OF_PERICENTER": 63.953, "MEAN_ANOMALY": 297.8432, "EPHEMERIS_TYPE": 0, "CLASSIFICATION_TYPE": "U", "NORAD_CAT_ID": 38833, "ELEMENT_SET_NO": 999, "REV_AT_EPOCH": 9564, "BSTAR": 0, "MEAN_MOTION_DOT": 6.8e-07, "MEAN_MOTION_DDOT": 0}, "tle": {"line1": "1 38833U 12053A   25343.85972885  .00000068  00000+0  00000+0 0  9997", "line2": "2 38833  53.5569 151.3565 0175755  63.9530 297.8432  2.00564945 95646"}}, "geometry": {"type": "Point", "coordinates": [77.82831164808724, -52.35838211900004]}}, {"type": "Feature", "properties": {"norad_id": 38857, "name": "GSAT0103 (GALILEO-FM3)", "group": "gnss", "lat": -1.9501880314639086, "lon": -72.0281127840988, "alt_km": 23222.30254353613, "timestamp": "2025-12-13T05:42:57.799263+00:00", "meta": {"OBJECT_NAME": "GSAT0103 (GALILEO-FM3)", "OBJECT_ID": "2012-055A", "EPOCH": "2025-12-10T14:16:18.944544", "MEAN_MOTION": 1.70473311, "ECCENTRICITY": 0.00025926, "INCLINATION": 55.6913, "RA_OF_ASC_NODE": 106.7254, "ARG_OF_PERICENTER": 268.6178, "MEAN_ANOMALY": 91.322, "EPHEMERIS_TYPE": 0, "CLASSIFICATION_TYPE": "U", "NORAD_CAT_ID": 38857, "ELEMENT_SET_NO": 999, "REV_AT_EPOCH": 8179, "BSTAR": 0, "MEAN_MOTION_DOT": 1.1e-07, "MEAN_MOTION_DDOT": 0}, "tle": {"line1": "1 38857U 12055A   25344.59466371  .00000011  00000+0  00000+0 0  9993", "line2": "2 38857  55.6913 106.7254 0002592 268.6178  91.3220  1.70473311 81792"}}, "geometry": {"type": "Point", "coordinates": [-72.0281127840988, -1.9501880314639086]}}, {"type": "Feature", "properties": {"norad_id": 38953, "name": "BEIDOU-2 G6 (C02)", "group": "gnss", "lat": 0.23305545399509295, "lon": -108.15675441857108, "alt_km": 35799.55461774783, "timestamp": "2025-12-13T05:42:57.799280+00:00", "meta": {"OBJECT_NAME": "BEIDOU-2 G6 (C02)", "OBJECT_ID": "2012-059A", "EPOCH": "2025-12-11T20:45:33.415776", "MEAN_MOTION": 1.00269666, "ECCENTRICITY": 0.0007739, "INCLINATION": 3.9473, "RA_OF_ASC_NODE": 75.5133, "ARG_OF_PERICENTER": 289.4412, "MEAN_ANOMALY": 111.2689, "EPHEMERIS_TYPE": 0, "CLASSIFICATION_TYPE": "U", "NORAD_CAT_ID": 38953, "ELEMENT_SET_NO": 999, "REV_AT_EPOCH": 4803, "BSTAR": 0, "MEAN_MOTION_DOT": -1.67e-06, "MEAN_MOTION_DDOT": 0}, "tle": {"line1": "1 38953U 12059A   25345.86497009 -.00000167  00000+0  00000+0 0  9990", "line2": "2 38953   3.9473  75.5133 0007739 289.4412 111.2689  1.00269666 48035"}}, "geometry": {"type": "Point", "coordinates": [-108.15675441857108, 0.23305545399509295]}}, {"type": "Feature", "properties": {"norad_id": 38977, "name": "LUCH 5B (SDCM/PRN 125)", "group": "gnss", "lat": 9.941088118538813, "lon": 151.64436548178784, "alt_km": 35786.441590554095, "timestamp": "2025-12-13T05:42:57.799293+00:00", "meta": {"OBJECT_NAME": "LUCH 5B (SDCM/PRN 125)", "OBJECT_ID": "2012-061A", "EPOCH": "2025-12-11T23:42:18.523296", "MEAN_MOTION": 1.00272282, "ECCENTRICITY": 0.0007194, "INCLINATION": 10.0801, "RA_OF_ASC_NODE": 51.7145, "ARG_OF_PERICENTER": 192.9773, "MEAN_ANOMALY": 175.4845, "EPHEMERIS_TYPE": 0, "CLASSIFICATION_TYPE": "U", "NORAD_CAT_ID": 38977, "ELEMENT_SET_NO": 999, "REV_AT_EPOCH": 4773, "BSTAR": 0, "MEAN_MOTION_DOT": -1.33e-06, "MEAN_MOTION_DDOT": 0}, "tle": {"line1": "1 38977U 12061A   25345.98771439 -.00000133  00000+0  00000+0 0  9997", "line2": "2 38977  10.0801  51.7145 0007194 192.9773 175.4845  1.00272282 47737"}}, "geometry": {"type": "Point", "coordinates": [151.64436548178784, 9.941088118538813]}}, {"type": "Feature", "properties": {"norad_id": 39155, "name": "COSMOS 2485 (747)", "group": "gnss", "lat": 53.19952665081975, "lon": -138.0191284155721, "alt_km": 19146.101856916433, "timestamp": "2025-12-13T05:42:57.799314+00:00", "meta": {"OBJECT_NAME": "COSMOS 2485 (747)", "OBJECT_ID": "2013-019A", "EPOCH": "2025-12-10T17:41:35.437344", "MEAN_MOTION": 2.13102878, "ECCENTRICITY": 0.00245732, "INCLINATION": 65.3124, "RA_OF_ASC_NODE": 79.9346, "ARG_OF_PERICENTER": 229.2052, "MEAN_ANOMALY": 130.5984, "EPHEMERIS_TYPE": 0, "CLASSIFICATION_TYPE": "U", "NORAD_CAT_ID": 39155, "ELEMENT_SET_NO": 999, "REV_AT_EPOCH": 9826, "BSTAR": 0, "MEAN_MOTION_DOT": -2.2e-07, "MEAN_MOTION_DDOT": 0}, "tle": {"line1": "1 39155U 13019A   25344.73721571 -.00000022  00000+0  00000+0 0  9991", "line2": "2 39155  65.3124  79.9346 0024573 229.2052 130.5984  2.13102878 98264"}}, "geometry": {"type": "Point", "coordinates": [-138.0191284155721, 53.19952665081975]}}, {"type": "Feature", "properties": {"norad_id": 39166, "name": "GPS BIIF-4  (PRN 27)", "group": "gnss", "lat": 14.62246670993468, "lon": -72.80798035031715, "alt_km": 19864.349295479886, "timestamp": "2025-12-13T05:42:57.799326+00:00", "meta": {"OBJECT_NAME": "GPS BIIF-4  (PRN 27)", "OBJECT_ID": "2013-023A", "EPOCH": "2025-12-11T05:15:59.310144", "MEAN_MOTION": 2.0056514, "ECCENTRICITY": 0.01377988, "INCLINATION": 54.6533, "RA_OF_ASC_NODE": 276.63, "ARG_OF_PERICENTER": 48.5969, "MEAN_ANOMALY": 312.5932, "EPHEMERIS_TYPE": 0, "CLASSIFICATION_TYPE": "U", "NORAD_CAT_ID": 39166, "ELEMENT_SET_NO": 999, "REV_AT_EPOCH": 9211, "BSTAR": 0, "MEAN_MOTION_DOT": -6.7e-07, "MEAN_MOTION_DDOT": 0}, "tle": {"line1": "1 39166U 13023A   25345.21943646 -.00000067  00000+0  00000+0 0  9990", "line2": "2 39166  54.6533 276.6300 0137798  48.5969 312.5932  2.00565140 92114"}}, "geometry": {"type": "Point", "coordinates": [-72.80798035031715, 14.62246670993468]}}, {"type": "Feature", "properties": {"norad_id": 39199, "name": "IRNSS-1A", "group": "gnss", "lat": 13.22037862689116, "lon": -132.8101213177161, "alt_km": 35701.68969702818, "timestamp": "2025-12-13T05:42:57.799340+00:00", "meta": {"OBJECT_NAME": "IRNSS-1A", "OBJECT_ID": "2013-034A", "EPOCH": "2025-12-02T19:49:26.431104", "MEAN_MOTION": 1.00279053, "ECCENTRICITY": 0.00216608, "INCLINATION": 35.2852, "RA_OF_ASC_NODE": 66.6964, "ARG_OF_PERICENTER": 185.4059, "MEAN_ANOMALY": 172.3398, "EPHEMERIS_TYPE": 0, "CLASSIFICATION_TYPE": "U", "NORAD_CAT_ID": 39199, "ELEMENT_SET_NO": 999, "REV_AT_EPOCH": 4539, "BSTAR": 0, "MEAN_MOTION_DOT": 6.5e-07, "MEAN_MOTION_DDOT": 0}, "tle": {"line1": "1 39199U 13034A   25336.82600036  .00000065  00000+0  00000+0 0  9995", "line2": "2 39199  35.2852  66.6964 0021660 185.4059 172.3398  1.00279053 45393"}}, "geometry": {"type": "Point", "coordinates": [-132.8101213177161, 13.22037862689116]}}, {"type": "Feature", "properties": {"norad_id": 39533, "name": "GPS BIIF-5  (PRN 30)", "group": "gnss", "lat": 17.32915673403194, "lon": 170.19411963552434, "alt_km": 20369.7884561213, "timestamp": "2025-12-13T05:42:57.799353+00:00", "meta": {"OBJECT_NAME": "GPS BIIF-5  (PRN 30)", "OBJECT_ID": "2014-008A", "EPOCH": "2025-12-11T17:05:22.085952", "MEAN_MOTION": 2.00574377, "ECCENTRICITY": 0.0079189, "INCLINATION": 53.6311, "RA_OF_ASC_NODE": 156.9665, "ARG_OF_PERICENTER": 226.4865, "MEAN_ANOMALY": 132.8633, "EPHEMERIS_TYPE": 0, "CLASSIFICATION_TYPE": "U", "NORAD_CAT_ID": 39533, "ELEMENT_SET_NO": 999, "REV_AT_EPOCH": 8592, "BSTAR": 0, "MEAN_MOTION_DOT": 8.7e-07, "MEAN_MOTION_DDOT": 0}, "tle": {"line1": "1 39533U 14008A   25345.71206118  .00000087  00000+0  00000+0 0  9994", "line2": "2 39533  53.6311 156.9665 0079189 226.4865 132.8633  2.00574377 85924"}}, "geometry": {"type": "Point", "coordinates": [170.19411963552434, 17.32915673403194]}}, {"type": "Feature", "properties": {"norad_id": 39617, "name": "ASTRA 5B (EGNOS/PRN 123)", "group": "gnss", "lat": 0.01633115063088003, "lon": -168.65519176504182, "alt_km": 35780.706504737165, "timestamp": "2025-12-13T05:42:57.799365+00:00", "meta": {"OBJECT_NAME": "ASTRA 5B (EGNOS/PRN 123)", "OBJECT_ID": "2014-011B", "EPOCH": "2025-12-12T05:01:52.208256", "MEAN_MOTION": 1.00272166, "ECCENTRICITY": 0.00043876, "INCLINATION": 0.0602, "RA_OF_ASC_NODE": 37.2223, "ARG_OF_PERICENTER": 228.1315, "MEAN_ANOMALY": 274.757, "EPHEMERIS_TYPE": 0, "CLASSIFICATION_TYPE": "U", "NORAD_CAT_ID": 39617, "ELEMENT_SET_NO": 999, "REV_AT_EPOCH": 4279, "BSTAR": 0, "MEAN_MOTION_DOT": 1.47e-06, "MEAN_MOTION_DDOT": 0}, "tle": {"line1": "1 39617U 14011B   25346.20963204  .00000147  00000+0  00000+0 0  9999", "line2": "2 39617   0.0602  37.2223 0004387 228.1315 274.7570  1.00272166 42798"}}, "geometry": {"type": "Point", "coordinates": [-168.65519176504182, 0.01633115063088003]}}]}